ONEWEB-0387             
1 49313U 21090AL  25328.97483372  .00000108  00000+0  23437-3 0  9995
2 49313  87.9181 315.1962 0001560  88.0896 272.0416 13.20773579202868
ONEWEB-0388             
1 49314U 21090AM  25329.08157035  .00000086  00000+0  18298-3 0  9997
2 49314  87.9195 345.5906 0001802  97.5998 262.5339 13.19727421199491
ONEWEB-0389             
1 50469U 21132A   25328.77853561  .00000124  00000+0  28650-3 0  9995
2 50469  87.9138  46.5176 0001549 115.4191 244.7100 13.17650138191163
ONEWEB-0390             
1 50470U 21132B   25328.78022459  .00000155  00000+0  36544-3 0  9997
2 50470  87.9129  46.5207 0001692  94.0331 266.0994 13.17647765191167
ONEWEB-0391             
1 50471U 21132C   25328.78191022  .00000037  00000+0  62053-4 0  9995
2 50471  87.9122  46.5299 0000949 114.6053 245.5177 13.17647471191165
ONEWEB-0392             
1 50472U 21132D   25329.11602692 -.00000059  00000+0 -18536-3 0  9996
2 50472  87.9131  46.4146 0001504 110.3884 249.7409 13.17650455191248
ONEWEB-0393             
1 50473U 21132E   25328.70949401  .00000171  00000+0  40700-3 0  9994
2 50473  87.9135  46.5167 0002211 102.0139 258.1241 13.17651457191188
ONEWEB-0394             
1 50474U 21132F   25329.06592487  .00000118  00000+0  26549-3 0  9999
2 50474  87.9202  15.9811 0001763 103.3615 256.7714 13.18684892194692
